OBJECT B                
1 51825U 22019B   25150.93771959  .00021129  00000+0  52778-3 0  9994
2 51825  97.3851 227.4766 0011831  88.7867 271.4734 15.40106942180412
